NORAD_CAT_ID,OBJECT_NAME,OBJECT_TYPE,EPOCH,MEAN_MOTION,ECCENTRICITY,INCLINATION,RA_OF_ASC_NODE,ARG_OF_PERICENTER,MEAN_ANOMALY,BSTAR,MEAN_MOTION_DOT,MEAN_MOTION_DDOT,TLE_LINE0,TLE_LINE1,TLE_LINE2,SEMIMAJOR_AXIS,PERIOD,APOGEE,PERIGEE,DECAYED
51889.0,STARLINK-3547,PAYLOAD,2022-11-30 17:03:20,15.08842754,0.000286,53.2188,323.6011,34.1352,325.9824,6.2543e-05,7.07e-06,0.0,0 STARLINK-3547,1 51889U 22022AP  22334.71065732  .00000707  00000-0  62543-4 0  9992,2 51889  53.2188 323.6011 0002860  34.1352 325.9824 15.08842754 42845,6917.871999999999,95.437,541.715,537.758,0.0
51889.0,STARLINK-3547,PAYLOAD,2022-12-01 05:46:26,15.08838612,0.0003003,53.2187,321.2223,33.373000000000005,326.7451,6.4553e-05,7.39e-06,0.0,0 STARLINK-3547,1 51889U 22022AP  22335.24058090  .00000739  00000-0  64553-4 0  9998,2 51889  53.2187 321.2223 0003003  33.3730 326.7451 15.08838612 42926,6917.885,95.438,541.827,537.672,0.0
51889.0,STARLINK-3547,PAYLOAD,2022-12-01 10:32:35,15.0883889,0.0003077,53.2181,320.3295,29.1209,330.9954,4.0296e-05,3.53e-06,0.0,0 STARLINK-3547,1 51889U 22022AP  22335.43930139  .00000353  00000-0  40296-4 0  9992,2 51889  53.2181 320.3295 0003077  29.1209 330.9954 15.08838890 42950,6917.884,95.438,541.877,537.62,0.0
51889.0,STARLINK-3547,PAYLOAD,2022-12-02 10:23:22,15.08835779,0.0002954,53.218,315.8685,35.5701,324.5488,1.4647e-05,-5.6e-07,0.0,0 STARLINK-3547,1 51889U 22022AP  22336.43290508 -.00000056  00000-0  14647-4 0  9994,2 51889  53.2180 315.8685 0002954  35.5701 324.5488 15.08835779 43104,6917.893,95.438,541.802,537.715,0.0
51889.0,STARLINK-3547,PAYLOAD,2022-12-03 07:03:24,15.08833098,0.0003013,53.2179,312.003,33.2634,326.8547,1.0411e-05,-1.23e-06,0.0,0 STARLINK-3547,1 51889U 22022AP  22337.29402871 -.00000123  00000-0  10411-4 0  9997,2 51889  53.2179 312.0030 0003013  33.2634 326.8547 15.08833098 43239,6917.901,95.438,541.851,537.682,0.0
51889.0,STARLINK-3547,PAYLOAD,2022-12-03 15:00:20,15.08831389,0.000305,53.2177,310.5165,33.1746,326.9437,-1.9643e-05,-6.01e-06,0.0,0 STARLINK-3547,1 51889U 22022AP  22337.62523224 -.00000601  00000-0 -19643-4 0  9998,2 51889  53.2177 310.5165 0003050  33.1746 326.9437 15.08831389 43288,6917.906999999997,95.438,541.882,537.6619999999998,0.0
51889.0,STARLINK-3547,PAYLOAD,2022-12-04 02:08:01,15.08849994,0.0002993,53.2183,308.4352,29.6384,330.4777,-4.7704e-05,-1.048e-05,0.0,0 STARLINK-3547,1 51889U 22022AP  22338.08890392 -.00001048  00000-0 -47704-4 0  9997,2 51889  53.2183 308.4352 0002993  29.6384 330.4777 15.08849994 43358,6917.85,95.437,541.785,537.644,0.0
51889.0,STARLINK-3547,PAYLOAD,2022-12-04 06:54:10,15.08841053,0.0003015,53.2177,307.5451,30.5647,329.552,3.4462e-05,2.6e-06,0.0,0 STARLINK-3547,1 51889U 22022AP  22338.28762615  .00000260  00000-0  34462-4 0  9995,2 51889  53.2177 307.5451 0003015  30.5647 329.5520 15.08841053 43386,6917.877,95.437,541.828,537.656,0.0
51889.0,STARLINK-3547,PAYLOAD,2022-12-04 14:51:07,15.08832212,0.0002958,53.2181,306.0566,28.5654,331.55,3.6719e-05,2.96e-06,0.0,0 STARLINK-3547,1 51889U 22022AP  22338.61883274  .00000296  00000-0  36719-4 0  9993,2 51889  53.2181 306.0566 0002958  28.5654 331.5500 15.08832212 43436,6917.904,95.438,541.816,537.7230000000002,0.0
51889.0,STARLINK-3547,PAYLOAD,2022-12-04 22:48:02,15.08839976,0.0002989,53.2185,304.5699,29.0971,331.0187,0.00010879,1.443e-05,0.0,0 STARLINK-3547,1 51889U 22022AP  22338.95002791  .00001443  00000-0  10879-3 0  9990,2 51889  53.2185 304.5699 0002989  29.0971 331.0187 15.08839976 43487,6917.88,95.438,541.813,537.678,0.0
51889.0,STARLINK-3547,PAYLOAD,2022-12-05 09:55:44,15.08840467,0.0002994,53.2186,302.4897,34.8717,325.2471,0.00011586,1.556e-05,0.0,0 STARLINK-3547,1 51889U 22022AP  22339.41370763  .00001556  00000-0  11586-3 0  9990,2 51889  53.2186 302.4897 0002994  34.8717 325.2471 15.08840467 43559,6917.879,95.438,541.815,537.673,0.0
51889.0,STARLINK-3547,PAYLOAD,2022-12-05 14:41:53,15.08841063,0.0002997,53.2186,301.5965,31.5126,328.6045,0.00013969,1.935e-05,0.0,0 STARLINK-3547,1 51889U 22022AP  22339.61242714  .00001935  00000-0  13969-3 0  9994,2 51889  53.2186 301.5965 0002997  31.5126 328.6045 15.08841063 43586,6917.877,95.437,541.815,537.669,0.0
51889.0,STARLINK-3547,PAYLOAD,2022-12-06 01:49:34,15.08854713,0.0002883,53.2187,299.5153,30.9496,329.1666,0.0001612,2.279e-05,0.0,0 STARLINK-3547,1 51889U 22022AP  22340.07609632  .00002279  00000-0  16120-3 0  9996,2 51889  53.2187 299.5153 0002883  30.9496 329.1666 15.08854713 43658,6917.835,95.437,541.695,537.706,0.0
51889.0,STARLINK-3547,PAYLOAD,2022-12-06 06:35:44,15.08855357,0.0002858,53.2188,298.6231,31.3416,328.7746,0.0001325,1.822e-05,0.0,0 STARLINK-3547,1 51889U 22022AP  22340.27481525  .00001822  00000-0  13250-3 0  9991,2 51889  53.2188 298.6231 0002858  31.3416 328.7746 15.08855357 43687,6917.833000000001,95.437,541.6759999999998,537.721,0.0
51889.0,STARLINK-3547,PAYLOAD,2022-12-06 20:54:13,15.08830919,0.0003136,53.2188,295.9472,33.78,326.3391,-0.00015064,-2.685e-05,0.0,0 STARLINK-3547,1 51889U 22022AP  22340.87099078 -.00002685  00000-0 -15064-3 0  9990,2 51889  53.2188 295.9472 0003136  33.7800 326.3391 15.08830919 43774,6917.908,95.438,541.943,537.604,0.0
51889.0,STARLINK-3547,PAYLOAD,2022-12-07 14:23:28,15.08843059,0.0003279,53.2191,292.6759,32.4438,327.6756,6.991e-05,8.24e-06,0.0,0 STARLINK-3547,1 51889U 22022AP  22341.59963007  .00000824  00000-0  69910-4 0  9993,2 51889  53.2191 292.6759 0003279  32.4438 327.6756 15.08843059 43881,6917.871,95.437,542.004,537.4680000000002,0.0
51889.0,STARLINK-3547,PAYLOAD,2022-12-08 03:06:32,15.08848556,0.0002935,53.2199,290.2981,30.443,329.6732,2.6654e-05,1.36e-06,0.0,0 STARLINK-3547,1 51889U 22022AP  22342.12954572  .00000136  00000-0  26654-4 0  9994,2 51889  53.2199 290.2981 0002935  30.4430 329.6732 15.08848556 43960,6917.854,95.437,541.75,537.689,0.0
51889.0,STARLINK-3547,PAYLOAD,2022-12-08 14:14:14,15.08852632,0.0002864,53.2185,288.2181,17.0522,343.0565,0.00026204,3.886e-05,0.0,0 STARLINK-3547,1 51889U 22022AP  22342.59321886  .00003886  00000-0  26204-3 0  9996,2 51889  53.2185 288.2181 0002864  17.0522 343.0565 15.08852632 44031,6917.842,95.437,541.688,537.726,0.0
51889.0,STARLINK-3547,PAYLOAD,2022-12-08 23:46:33,15.08846667,0.0002704,53.2182,286.4343,17.5619,342.5466,0.00047071,7.213e-05,0.0,0 STARLINK-3547,1 51889U 22022AP  22342.99066047  .00007213  00000-0  47071-3 0  9998,2 51889  53.2182 286.4343 0002704  17.5619 342.5466 15.08846667 44094,6917.86,95.437,541.596,537.854,0.0
51889.0,STARLINK-3547,PAYLOAD,2022-12-09 01:21:55,15.08851639,0.000271,53.2184,286.1358,28.2916,331.8223,0.00030678,4.599e-05,0.0,0 STARLINK-3547,1 51889U 22022AP  22343.05689808  .00004599  00000-0  30678-3 0  9991,2 51889  53.2184 286.1358 0002710  28.2916 331.8223 15.08851639 44104,6917.845,95.437,541.585,537.835,0.0
51889.0,STARLINK-3547,PAYLOAD,2022-12-09 20:26:34,15.08824053,0.0002462,53.2181,282.5694,11.4831,348.6217,0.00010034,1.308e-05,0.0,0 STARLINK-3547,1 51889U 22022AP  22343.85179160  .00001308  00000-0  10034-3 0  9993,2 51889  53.2181 282.5694 0002462  11.4831 348.6217 15.08824053 44220,6917.929,95.439,541.497,538.091,0.0
51889.0,STARLINK-3547,PAYLOAD,2022-12-10 01:12:45,15.08800492,0.0002365,53.2188,281.6764,1.9644,358.1357,-1.4277e-05,-5.15e-06,0.0,0 STARLINK-3547,1 51889U 22022AP  22344.05052567 -.00000515  00000-0 -14277-4 0  9992,2 51889  53.2188 281.6764 0002365   1.9644 358.1357 15.08800492 44258,6918.001,95.44,541.502,538.23,0.0
51889.0,STARLINK-3547,PAYLOAD,2022-12-10 05:58:54,15.08822915,0.0002653,53.2191,280.7858,29.8836,330.2308,-0.00030824,-5.189e-05,0.0,0 STARLINK-3547,1 51889U 22022AP  22344.24924003 -.00005189  00000-0 -30824-3 0  9993,2 51889  53.2191 280.7858 0002653  29.8836 330.2308 15.08822915 44282,6917.933000000001,95.439,541.633,537.962,0.0
51889.0,STARLINK-3547,PAYLOAD,2022-12-11 02:38:54,15.08837818,0.0002752,53.2171,276.9143,25.7888,334.3241,0.00010918,1.449e-05,0.0,0 STARLINK-3547,1 51889U 22022AP  22345.11035724  .00001449  00000-0  10918-3 0  9998,2 51889  53.2171 276.9143 0002752  25.7888 334.3241 15.08837818 44410,6917.887,95.438,541.656,537.8480000000002,0.0
51889.0,STARLINK-3547,PAYLOAD,2022-12-12 04:05:05,15.08855392,0.0002837,53.217,272.157,23.9755,336.1368,0.00053304,8.209e-05,0.0,0 STARLINK-3547,1 51889U 22022AP  22346.17019926  .00008209  00000-0  53304-3 0  9998,2 51889  53.2170 272.1570 0002837  23.9755 336.1368 15.08855392 44572,6917.833000000001,95.437,541.661,537.736,0.0
51889.0,STARLINK-3547,PAYLOAD,2022-12-12 05:40:28,15.08858339,0.00028,53.2171,271.86,24.519,335.5935,0.00064235,9.955e-05,0.0,0 STARLINK-3547,1 51889U 22022AP  22346.23643839  .00009955  00000-0  64235-3 0  9995,2 51889  53.2171 271.8600 0002800  24.5190 335.5935 15.08858339 44581,6917.824000000001,95.436,541.626,537.752,0.0
51889.0,STARLINK-3547,PAYLOAD,2022-12-13 03:55:51,15.08848229,0.0002498,53.2171,267.6996,27.8714,332.2411,0.00015307,2.149e-05,0.0,0 STARLINK-3547,1 51889U 22022AP  22347.16379609  .00002149  00000-0  15307-3 0  9993,2 51889  53.2171 267.6996 0002498  27.8714 332.2411 15.08848229 44729,6917.855,95.437,541.448,537.992,0.0
51889.0,STARLINK-3547,PAYLOAD,2022-12-13 05:31:15,15.08842909,0.0002929,53.2175,267.401,28.2645,331.8506,-2.745e-05,-7.26e-06,0.0,0 STARLINK-3547,1 51889U 22022AP  22347.23003774 -.00000726  00000-0 -27450-4 0  9992,2 51889  53.2175 267.4010 0002929  28.2645 331.8506 15.08842909 44735,6917.871,95.437,541.763,537.71,0.0
51889.0,STARLINK-3547,PAYLOAD,2022-12-14 03:46:39,15.08841678,0.0002845,53.2172,263.2375,26.4051,333.7085,-1.6631e-05,-5.53e-06,0.0,0 STARLINK-3547,1 51889U 22022AP  22348.15739879 -.00000553  00000-0 -16631-4 0  9993,2 51889  53.2172 263.2375 0002845  26.4051 333.7085 15.08841678 44878,6917.875,95.437,541.7080000000002,537.7719999999998,0.0
